{"type": "FeatureCollection", "features": [ {"type": "Feature", "properties": {"norad_id": 38552, "name": "METEOSAT-10 (MSG-3)", "group": "weather", "lat": -0.783756243316071, "lon": 50.78456723745725, "alt_km": 35784.66870670711, "timestamp": "2025-12-16T21:38:56.811691+00:00", "meta": {"OBJECT_NAME": "METEOSAT-10 (MSG-3)", "OBJECT_ID": "2012-035B", "EPOCH": "2025-12-16T01:22:19.860384", "MEAN_MOTION": 1.00275935, "ECCENTRICITY": 7.092e-05, "INCLINATION": 4.2364, "RA_OF_ASC_NODE": 61.7162, "ARG_OF_PERICENTER": 265.3862, "MEAN_ANOMALY": 138.6539, "EPHEMERIS_TYPE": 0, "CLASSIFICATION_TYPE": "U", "NORAD_CAT_ID": 38552, "ELEMENT_SET_NO": 999, "REV_AT_EPOCH": 4902, "BSTAR": 0, "MEAN_MOTION_DOT": 1.5e-07, "MEAN_MOTION_DDOT": 0}, "tle": {"line1": "1 38552U 12035B   25350.05717431  .00000015  00000+0  00000+0 0  9991", "line2": "2 38552   4.2364  61.7162 0000709 265.3862 138.6539  1.00275935 49027"}}, "geometry": {"type": "Point", "coordinates": [50.78456723745725, -0.783756243316071]}}, {"type": "Feature", "properties": {"norad_id": 38771, "name": "METOP-B", "group": "weather", "lat": 44.658350587307964, "lon": -130.52822882377538, "alt_km": 814.5529596952802, "timestamp": "2025-12-16T21:38:56.811702+00:00", "meta": {"OBJECT_NAME": "METOP-B", "OBJECT_ID": "2012-049A", "EPOCH": "2025-12-16T05:48:48.012768", "MEAN_MOTION": 14.21409672, "ECCENTRICITY": 0.0003036, "INCLINATION": 98.6796, "RA_OF_ASC_NODE": 40.1416, "ARG_OF_PERICENTER": 136.633, "MEAN_ANOMALY": 223.5087, "EPHEMERIS_TYPE": 0, "CLASSIFICATION_TYPE": "U", "NORAD_CAT_ID": 38771, "ELEMENT_SET_NO": 999, "REV_AT_EPOCH": 68727, "BSTAR": 8.4678921e-05, "MEAN_MOTION_DOT": 1.41e-06, "MEAN_MOTION_DDOT": 0}, "tle": {"line1": "1 38771U 12049A   25350.24222237  .00000141  00000+0  84679-4 0  9994", "line2": "2 38771  98.6796  40.1416 0003036 136.6330 223.5087 14.21409672687276"}}, "geometry": {"type": "Point", "coordinates": [-130.52822882377538, 44.658350587307964]}}, {"type": "Feature", "properties": {"norad_id": 39216, "name": "INSAT-3D", "group": "weather", "lat": 1.441754698383164, "lon": 179.9939076465323, "alt_km": 35785.21679678635, "timestamp": "2025-12-16T21:38:56.811714+00:00", "meta": {"OBJECT_NAME": "INSAT-3D", "OBJECT_ID": "2013-038B", "EPOCH": "2025-12-16T07:07:28.670304", "MEAN_MOTION": 1.00268466, "ECCENTRICITY": 0.00012596, "INCLINATION": 1.4537, "RA_OF_ASC_NODE": 84.959, "ARG_OF_PERICENTER": 166.4083, "MEAN_ANOMALY": 70.1917, "EPHEMERIS_TYPE": 0, "CLASSIFICATION_TYPE": "U", "NORAD_CAT_ID": 39216, "ELEMENT_SET_NO": 999, "REV_AT_EPOCH": 4524, "BSTAR": 0, "MEAN_MOTION_DOT": -3.17e-06, "MEAN_MOTION_DDOT": 0}, "tle": {"line1": "1 39216U 13038B   25350.29685961 -.00000317  00000+0  00000+0 0  9997", "line2": "2 39216   1.4537  84.9590 0001259 166.4083  70.1917  1.00268466 45246"}}, "geometry": {"type": "Point", "coordinates": [179.9939076465323, 1.441754698383164]}}, {"type": "Feature", "properties": {"norad_id": 39260, "name": "FENGYUN 3C", "group": "weather", "lat": -62.59437271670136, "lon": -14.905558830309776, "alt_km": 851.0686869555175, "timestamp": "2025-12-16T21:38:56.811725+00:00", "meta": {"OBJECT_NAME": "FENGYUN 3C", "OBJECT_ID": "2013-052A", "EPOCH": "2025-12-16T08:22:51.521952", "MEAN_MOTION": 14.15697436, "ECCENTRICITY": 0.00144744, "INCLINATION": 98.4767, "RA_OF_ASC_NODE": 327.8524, "ARG_OF_PERICENTER": 185.4055, "MEAN_ANOMALY": 174.6966, "EPHEMERIS_TYPE": 0, "CLASSIFICATION_TYPE": "U", "NORAD_CAT_ID": 39260, "ELEMENT_SET_NO": 999, "REV_AT_EPOCH": 63269, "BSTAR": 7.8550233e-05, "MEAN_MOTION_DOT": 1.13e-06, "MEAN_MOTION_DDOT": 0}, "tle": {"line1": "1 39260U 13052A   25350.34920743  .00000113  00000+0  78550-4 0  9991", "line2": "2 39260  98.4767 327.8524 0014474 185.4055 174.6966 14.15697436632693"}}, "geometry": {"type": "Point", "coordinates": [-14.905558830309776, -62.59437271670136]}}, {"type": "Feature", "properties": {"norad_id": 40069, "name": "METEOR-M 2", "group": "weather", "lat": 2.4336165608850435, "lon": -32.03647014164885, "alt_km": 826.8420402104584, "timestamp": "2025-12-16T21:38:56.811737+00:00", "meta": {"OBJECT_NAME": "METEOR-M 2", "OBJECT_ID": "2014-037A", "EPOCH": "2025-12-16T04:44:35.041920", "MEAN_MOTION": 14.21389002, "ECCENTRICITY": 0.00051358, "INCLINATION": 98.49, "RA_OF_ASC_NODE": 327.6499, "ARG_OF_PERICENTER": 198.8027, "MEAN_ANOMALY": 161.2962, "EPHEMERIS_TYPE": 0, "CLASSIFICATION_TYPE": "U", "NORAD_CAT_ID": 40069, "ELEMENT_SET_NO": 999, "REV_AT_EPOCH": 59332, "BSTAR": 0.00017165419, "MEAN_MOTION_DOT": 3.33e-06, "MEAN_MOTION_DDOT": 0}, "tle": {"line1": "1 40069U 14037A   25350.19762780  .00000333  00000+0  17165-3 0  9990", "line2": "2 40069  98.4900 327.6499 0005135 198.8027 161.2962 14.21389002593329"}}, "geometry": {"type": "Point", "coordinates": [-32.03647014164885, 2.4336165608850435]}}, {"type": "Feature", "properties": {"norad_id": 40267, "name": "HIMAWARI-8", "group": "weather", "lat": 0.00351558420147953, "lon": -168.8310129555715, "alt_km": 35786.306938955444, "timestamp": "2025-12-16T21:38:56.811749+00:00", "meta": {"OBJECT_NAME": "HIMAWARI-8", "OBJECT_ID": "2014-060A", "EPOCH": "2025-12-16T07:10:43.358880", "MEAN_MOTION": 1.00272695, "ECCENTRICITY": 8.929e-05, "INCLINATION": 0.0182, "RA_OF_ASC_NODE": 160.1434, "ARG_OF_PERICENTER": 127.5645, "MEAN_ANOMALY": 45.8311, "EPHEMERIS_TYPE": 0, "CLASSIFICATION_TYPE": "U", "NORAD_CAT_ID": 40267, "ELEMENT_SET_NO": 999, "REV_AT_EPOCH": 4092, "BSTAR": 0, "MEAN_MOTION_DOT": -2.52e-06, "MEAN_MOTION_DDOT": 0}, "tle": {"line1": "1 40267U 14060A   25350.29911295 -.00000252  00000+0  00000+0 0  9991", "line2": "2 40267   0.0182 160.1434 0000892 127.5645  45.8311  1.00272695 40929"}}, "geometry": {"type": "Point", "coordinates": [-168.8310129555715, 0.00351558420147953]}}, {"type": "Feature", "properties": {"norad_id": 40367, "name": "FENGYUN 2G", "group": "weather", "lat": 5.00706670672771, "lon": 149.83647631264367, "alt_km": 35795.51729331658, "timestamp": "2025-12-16T21:38:56.811761+00:00", "meta": {"OBJECT_NAME": "FENGYUN 2G", "OBJECT_ID": "2014-090A", "EPOCH": "2025-12-15T18:59:44.414592", "MEAN_MOTION": 1.00263196, "ECCENTRICITY": 0.00029567, "INCLINATION": 5.1761, "RA_OF_ASC_NODE": 75.0635, "ARG_OF_PERICENTER": 202.0383, "MEAN_ANOMALY": 191.9641, "EPHEMERIS_TYPE": 0, "CLASSIFICATION_TYPE": "U", "NORAD_CAT_ID": 40367, "ELEMENT_SET_NO": 999, "REV_AT_EPOCH": 4016, "BSTAR": 0, "MEAN_MOTION_DOT": -2.81e-06, "MEAN_MOTION_DDOT": 0}, "tle": {"line1": "1 40367U 14090A   25349.79148628 -.00000281  00000+0  00000+0 0  9992", "line2": "2 40367   5.1761  75.0635 0002956 202.0383 191.9641  1.00263196 40168"}}, "geometry": {"type": "Point", "coordinates": [149.83647631264367, 5.00706670672771]}}, {"type": "Feature", "properties": {"norad_id": 40732, "name": "METEOSAT-11 (MSG-4)", "group": "weather", "lat": -0.5581024248961883, "lon": 59.755264471391634, "alt_km": 35790.103623774296, "timestamp": "2025-12-16T21:38:56.811790+00:00", "meta": {"OBJECT_NAME": "METEOSAT-11 (MSG-4)", "OBJECT_ID": "2015-034A", "EPOCH": "2025-12-16T06:33:09.456768", "MEAN_MOTION": 1.00268594, "ECCENTRICITY": 9.117e-05, "INCLINATION": 2.7446, "RA_OF_ASC_NODE": 71.992, "ARG_OF_PERICENTER": 131.4875, "MEAN_ANOMALY": 349.2173, "EPHEMERIS_TYPE": 0, "CLASSIFICATION_TYPE": "U", "NORAD_CAT_ID": 40732, "ELEMENT_SET_NO": 999, "REV_AT_EPOCH": 538, "BSTAR": 0, "MEAN_MOTION_DOT": 8.2e-07, "MEAN_MOTION_DDOT": 0}, "tle": {"line1": "1 40732U 15034A   25350.27302612  .00000082  00000+0  00000+0 0  9995", "line2": "2 40732   2.7446  71.9920 0000911 131.4875 349.2173  1.00268594  5389"}}, "geometry": {"type": "Point", "coordinates": [59.755264471391634, -0.5581024248961883]}}, {"type": "Feature", "properties": {"norad_id": 41105, "name": "ELEKTRO-L 2", "group": "weather", "lat": -3.706472838281146, "lon": 36.229719582136426, "alt_km": 35792.83776933822, "timestamp": "2025-12-16T21:38:56.811802+00:00", "meta": {"OBJECT_NAME": "ELEKTRO-L 2", "OBJECT_ID": "2015-074A", "EPOCH": "2025-12-16T01:18:12.753792", "MEAN_MOTION": 1.00272542, "ECCENTRICITY": 0.00037924, "INCLINATION": 6.234, "RA_OF_ASC_NODE": 72.7892, "ARG_OF_PERICENTER": 209.7128, "MEAN_ANOMALY": 167.5089, "EPHEMERIS_TYPE": 0, "CLASSIFICATION_TYPE": "U", "NORAD_CAT_ID": 41105, "ELEMENT_SET_NO": 999, "REV_AT_EPOCH": 3667, "BSTAR": 0, "MEAN_MOTION_DOT": -9.9e-07, "MEAN_MOTION_DDOT": 0}, "tle": {"line1": "1 41105U 15074A   25350.05431428 -.00000099  00000+0  00000+0 0  9997", "line2": "2 41105   6.2340  72.7892 0003792 209.7128 167.5089  1.00272542 36674"}}, "geometry": {"type": "Point", "coordinates": [36.229719582136426, -3.706472838281146]}}, {"type": "Feature", "properties": {"norad_id": 41752, "name": "INSAT-3DR", "group": "weather", "lat": 0.07594500957408234, "lon": 124.41172474861845, "alt_km": 35836.37256419965, "timestamp": "2025-12-16T21:38:56.811815+00:00", "meta": {"OBJECT_NAME": "INSAT-3DR", "OBJECT_ID": "2016-054A", "EPOCH": "2025-12-16T03:41:38.728608", "MEAN_MOTION": 1.00271524, "ECCENTRICITY": 0.00141919, "INCLINATION": 0.1005, "RA_OF_ASC_NODE": 86.7197, "ARG_OF_PERICENTER": 184.5151, "MEAN_ANOMALY": 303.2163, "EPHEMERIS_TYPE": 0, "CLASSIFICATION_TYPE": "U", "NORAD_CAT_ID": 41752, "ELEMENT_SET_NO": 999, "REV_AT_EPOCH": 3398, "BSTAR": 0, "MEAN_MOTION_DOT": -5.4e-07, "MEAN_MOTION_DDOT": 0}, "tle": {"line1": "1 41752U 16054A   25350.15392047 -.00000054  00000+0  00000+0 0  9999", "line2": "2 41752   0.1005  86.7197 0014191 184.5151 303.2163  1.00271524 33989"}}, "geometry": {"type": "Point", "coordinates": [124.41172474861845, 0.07594500957408234]}}]}